{"type":"FeatureCollection","features":[{"type":"Feature","properties":{"iso3":"CHN","shapeGroup":"CHN","shapeName":"Hainan Province","listId":"asia-china-yunnan-province"},"geometry":{"type":"Polygon","coordinates":[[[110.925,20],[110.922,20.16],[110.833,20.153],[110.596,20.079],[110.107,20.049],[110.013,19.955],[109.656,20.02],[109.552,19.984],[109.393,19.877],[109.257,19.89],[109.174,19.841],[109.174,19.746],[109.25,19.723],[109.205,19.632],[109.056,19.589],[108.647,19.344],[108.637,19.19],[108.598,19.089],[108.605,18.8],[108.668,18.646],[108.664,18.504],[109.105,18.277],[109.438,18.251],[109.476,18.172],[109.698,18.195],[109.705,18.35],[110.034,18.38],[110.024,18.462],[110.204,18.649],[110.346,18.626],[110.46,18.721],[110.558,19.19],[110.786,19.485],[110.984,19.648],[110.984,19.818],[110.925,20]]]}},{"type":"Feature","properties":{"iso3":"CHN","shapeGroup":"CHN","shapeName":"Guangxi Zhuang Autonomous Region","listId":"asia-china-yunnan-province"},"geometry":{"type":"Polygon","coordinates":[[[112.001,24.857],[111.969,24.862],[111.914,24.869],[111.769,24.891],[111.698,24.886],[111.656,24.843],[111.627,24.8],[111.563,24.755],[111.524,24.765],[111.514,24.82],[111.512,24.869],[111.519,24.915],[111.511,25.003],[111.519,25.058],[111.518,25.104],[111.511,25.133],[111.454,25.212],[111.317,25.226],[111.281,25.184],[111.23,25.142],[111.105,25.055],[111.099,25.074],[111.052,25.146],[111.067,25.24],[111.11,25.273],[111.148,25.305],[111.209,25.361],[111.232,25.403],[111.244,25.443],[111.256,25.468],[111.378,25.545],[111.378,25.588],[111.398,25.673],[111.406,25.748],[111.434,25.808],[111.477,25.869],[111.497,25.908],[111.513,26.004],[111.406,26.007],[111.355,26.025],[111.323,26.06],[111.3,26.106],[111.317,26.375],[111.29,26.397],[111.225,26.424],[111.13,26.469],[111.031,26.46],[111.004,26.439],[110.933,26.407],[110.838,26.418],[110.72,26.439],[110.38,26.113],[110.207,26.124],[110.195,26.209],[110.187,26.287],[110.159,26.329],[110.116,26.35],[110.033,26.336],[110.002,26.301],[109.99,26.241],[109.966,26.174],[109.935,26.11],[109.856,26.043],[109.737,26.043],[109.682,26.089],[109.67,26.117],[109.538,26.126],[109.524,26.079],[109.383,25.947],[109.314,25.881],[109.254,25.902],[109.128,25.921],[109.06,25.888],[109.044,25.848],[109.058,25.802],[109.084,25.751],[109.068,25.703],[109.015,25.675],[108.94,25.671],[108.84,25.674],[108.801,25.663],[108.679,25.526],[108.643,25.508],[108.494,25.588],[108.323,25.621],[108.292,25.567],[108.258,25.516],[108.187,25.44],[108.17,25.383],[108.139,25.329],[108.121,25.318],[108.073,25.316],[108.029,25.319],[108,25.313],[107.909,25.281],[107.888,25.255],[107.843,25.286],[107.774,25.357],[107.686,25.405],[107.642,25.408],[107.599,25.392],[107.542,25.404],[107.497,25.434],[107.471,25.462],[107.425,25.499],[107.413,25.533],[107.394,25.607],[107.375,25.621],[107.308,25.621],[107.245,25.607],[107.16,25.565],[107.127,25.472],[107.1,25.432],[107.034,25.365],[106.997,25.318],[106.962,25.302],[106.904,25.288],[106.741,25.268],[106.643,25.223],[106.592,25.173],[106.434,25.106],[106.39,25.078],[106.305,25.057],[106.256,25.056],[106.219,24.91],[106.23,24.882],[106.184,24.849],[106.119,24.817],[106.064,24.795],[106.035,24.781],[105.974,24.785],[105.94,24.813],[105.81,24.827],[105.781,24.861],[105.641,24.898],[105.578,24.889],[105.526,24.912],[105.481,25],[105.387,25.028],[105.221,25.044],[105.151,25.009],[105.083,24.911],[105.019,24.876],[104.944,24.874],[104.901,24.847],[104.859,24.798],[104.812,24.783],[104.75,24.779],[104.663,24.794],[104.631,24.807],[104.59,24.814],[104.581,24.817],[104.58,24.797],[104.545,24.742],[104.542,24.71],[104.555,24.655],[104.583,24.591],[104.648,24.508],[104.696,24.462],[104.724,24.476],[104.734,24.529],[104.775,24.55],[104.911,24.545],[104.961,24.515],[105.047,24.533],[105.073,24.559],[105.123,24.524],[105.186,24.471],[105.211,24.437],[105.232,24.343],[105.232,24.262],[105.247,24.228],[105.345,24.195],[105.464,24.154],[105.519,24.158],[105.6,24.218],[105.62,24.221],[105.661,24.211],[105.772,24.165],[105.858,24.112],[105.94,24.131],[105.986,24.165],[106.033,24.171],[106.076,24.148],[106.121,24.107],[106.179,24.028],[106.204,23.971],[106.199,23.916],[106.168,23.754],[106.154,23.638],[106.14,23.601],[106.086,23.584],[105.876,23.589],[105.832,23.564],[105.786,23.498],[105.746,23.459],[105.684,23.415],[105.664,23.393],[105.576,23.323],[105.537,23.283],[105.542,23.28],[105.585,23.169],[105.97,22.946],[106.161,23.023],[106.379,22.882],[106.563,22.936],[106.83,22.831],[106.82,22.709],[106.649,22.57],[106.655,22.425],[106.736,22.299],[106.747,22.013],[107.061,21.963],[107.214,21.784],[107.534,21.623],[107.592,21.629],[107.84,21.688],[108.043,21.581],[108.18,21.642],[108.228,21.622],[108.319,21.606],[108.381,21.716],[108.491,21.743],[108.525,21.946],[108.654,21.956],[108.691,21.836],[108.795,21.696],[108.853,21.753],[109.126,21.634],[109.157,21.438],[109.323,21.516],[109.549,21.539],[109.498,21.72],[109.567,21.735],[109.72,21.549],[109.742,21.547],[109.743,21.611],[109.792,21.679],[109.824,21.709],[109.84,21.72],[109.902,21.724],[109.921,21.733],[109.942,21.768],[109.965,21.859],[109.984,21.91],[110.067,21.961],[110.109,21.963],[110.206,21.963],[110.32,21.967],[110.375,21.973],[110.396,21.994],[110.347,22.057],[110.377,22.249],[110.536,22.246],[110.617,22.27],[110.766,22.344],[110.743,22.417],[110.728,22.503],[110.746,22.571],[110.791,22.629],[110.849,22.643],[110.915,22.652],[111.011,22.701],[111.097,22.755],[111.41,22.964],[111.443,23.036],[111.458,23.136],[111.45,23.185],[111.43,23.248],[111.424,23.329],[111.424,23.373],[111.439,23.428],[111.466,23.486],[111.487,23.536],[111.521,23.595],[111.54,23.659],[111.558,23.706],[111.666,23.762],[111.679,23.91],[111.759,23.924],[111.796,23.928],[111.86,23.958],[111.91,24.018],[111.94,24.07],[111.943,24.164],[111.94,24.292],[111.998,24.347],[112.057,24.404],[112.077,24.46],[112.067,24.521],[112.064,24.572],[112.064,24.606],[112.059,24.669],[112.007,24.769],[111.996,24.814],[112.001,24.857]]]}},{"type":"Feature","properties":{"iso3":"CHN","shapeGroup":"CHN","shapeName":"Yunnan Province","listId":"asia-china-yunnan-province"},"geometry":{"type":"Polygon","coordinates":[[[104.581,24.817],[104.583,24.859],[104.588,24.919],[104.628,24.999],[104.708,25.057],[104.742,25.16],[104.75,25.21],[104.76,25.331],[104.742,25.381],[104.72,25.413],[104.652,25.478],[104.568,25.491],[104.497,25.519],[104.416,25.688],[104.356,25.799],[104.421,25.872],[104.458,25.972],[104.564,26.149],[104.577,26.206],[104.568,26.282],[104.587,26.372],[104.658,26.443],[104.691,26.491],[104.709,26.536],[104.656,26.617],[104.588,26.716],[104.492,26.802],[104.381,26.762],[104.33,26.762],[104.207,26.768],[104.179,26.739],[104.133,26.683],[104.063,26.637],[103.977,26.635],[103.851,26.669],[103.835,26.734],[103.843,26.813],[103.807,26.871],[103.797,26.905],[103.795,26.953],[103.802,26.996],[103.824,27.025],[103.837,27.055],[103.807,27.108],[103.723,27.147],[103.695,27.173],[103.692,27.199],[103.739,27.256],[103.813,27.316],[103.902,27.443],[103.994,27.487],[104.109,27.476],[104.236,27.398],[104.259,27.418],[104.277,27.46],[104.356,27.51],[104.451,27.512],[104.55,27.453],[104.917,27.426],[105.054,27.483],[105.091,27.491],[105.172,27.49],[105.217,27.502],[105.248,27.536],[105.329,27.748],[105.374,27.849],[105.369,27.866],[105.335,27.993],[105.342,28.077],[105.303,28.115],[105.208,28.195],[105.129,28.209],[105.054,28.17],[105.027,28.052],[104.822,27.976],[104.585,27.989],[104.506,28.031],[104.459,28.115],[104.486,28.188],[104.49,28.316],[104.427,28.355],[104.356,28.421],[104.344,28.5],[104.407,28.597],[104.4,28.705],[104.301,28.75],[104.19,28.719],[104.06,28.705],[103.977,28.712],[103.918,28.701],[103.867,28.639],[103.875,28.556],[103.938,28.466],[103.91,28.379],[103.76,28.348],[103.67,28.33],[103.618,28.323],[103.555,28.237],[103.555,28.143],[103.583,28.097],[103.571,28.007],[103.573,27.908],[103.414,27.785],[103.28,27.657],[103.199,27.566],[103.139,27.537],[103.093,27.534],[103.053,27.521],[103.022,27.49],[103.015,27.429],[102.992,27.357],[102.977,27.274],[102.962,27.176],[102.954,27.099],[102.95,26.983],[102.995,26.938],[103.018,26.888],[103.07,26.832],[103.071,26.77],[103.062,26.664],[103.06,26.518],[103.025,26.484],[102.924,26.412],[102.841,26.373],[102.772,26.332],[102.719,26.332],[102.671,26.382],[102.636,26.432],[102.606,26.445],[102.558,26.445],[102.512,26.427],[102.467,26.403],[102.424,26.384],[102.326,26.317],[102.265,26.264],[102.146,26.194],[102.055,26.172],[101.962,26.176],[101.863,26.201],[101.841,26.221],[101.793,26.278],[101.714,26.314],[101.682,26.323],[101.651,26.393],[101.651,26.531],[101.523,26.637],[101.515,26.669],[101.525,26.723],[101.53,26.798],[101.492,26.849],[101.419,26.937],[101.273,27.05],[101.243,27.308],[101.157,27.406],[101.05,27.455],[101.011,27.522],[100.995,27.592],[100.979,27.672],[100.896,27.738],[100.758,27.874],[100.632,27.976],[100.51,27.962],[100.182,28.086],[100.177,28.144],[100.154,28.206],[100.124,28.317],[100.124,28.386],[100.174,28.471],[100.205,28.557],[100.142,28.617],[100.071,28.655],[100.003,28.653],[99.937,28.637],[99.897,28.599],[99.816,28.539],[99.659,28.375],[99.505,28.36],[99.485,28.322],[99.392,28.246],[99.316,28.353],[99.268,28.413],[99.215,28.535],[99.21,28.75],[99.164,28.932],[99.162,29.054],[99.121,29.278],[99.121,29.34],[99.048,29.339],[98.981,29.318],[98.931,29.273],[98.936,29.132],[98.83,29.016],[98.674,28.971],[98.697,28.855],[98.668,28.741],[98.655,28.638],[98.674,28.384],[98.506,28.307],[98.369,28.377],[98.264,28.287],[98.154,28.213],[98.176,28.191],[98.176,27.961],[98.436,27.539],[98.56,27.674],[98.761,27.568],[98.755,27.323],[98.777,27.174],[98.826,26.961],[98.782,26.269],[98.612,26.064],[98.756,25.92],[98.655,25.79],[98.57,25.805],[98.401,25.584],[98.214,25.577],[98.148,25.366],[97.891,25.3],[97.759,25.002],[97.818,24.873],[97.631,24.823],[97.583,24.662],[97.6,24.542],[97.645,24.426],[97.718,24.34],[97.773,24.239],[97.655,24.011],[97.645,23.885],[97.766,23.885],[98.044,24.113],[98.332,24.185],[98.56,24.132],[98.862,24.151],[98.748,23.935],[98.841,23.688],[98.883,23.615],[98.952,23.233],[99.139,23.102],[99.504,23.121],[99.542,22.965],[99.403,22.783],[99.42,22.556],[99.284,22.409],[99.219,22.153],[99.994,22.037],[99.992,21.764],[100.147,21.642],[100.24,21.396],[100.395,21.491],[100.629,21.436],[100.833,21.605],[101.103,21.71],[101.303,21.208],[101.662,21.214],[101.782,21.171],[101.813,21.531],[101.795,21.862],[101.594,22.194],[101.601,22.261],[101.712,22.457],[102.206,22.428],[102.448,22.616],[102.495,22.733],[102.615,22.77],[103.03,22.463],[103.405,22.792],[103.582,22.579],[103.675,22.788],[103.995,22.51],[104.108,22.745],[104.25,22.85],[104.37,22.729],[104.905,22.895],[104.923,23.034],[104.909,23.111],[105.302,23.342],[105.362,23.362],[105.537,23.283],[105.576,23.323],[105.664,23.393],[105.684,23.415],[105.746,23.459],[105.786,23.498],[105.832,23.564],[105.876,23.589],[106.086,23.584],[106.14,23.601],[106.154,23.638],[106.168,23.754],[106.199,23.916],[106.204,23.971],[106.179,24.028],[106.121,24.107],[106.076,24.148],[106.033,24.171],[105.986,24.165],[105.94,24.131],[105.858,24.112],[105.772,24.165],[105.661,24.211],[105.62,24.221],[105.6,24.218],[105.519,24.158],[105.464,24.154],[105.345,24.195],[105.247,24.228],[105.232,24.262],[105.232,24.343],[105.211,24.437],[105.186,24.471],[105.123,24.524],[105.073,24.559],[105.047,24.533],[104.961,24.515],[104.911,24.545],[104.775,24.55],[104.734,24.529],[104.724,24.476],[104.696,24.462],[104.648,24.508],[104.583,24.591],[104.555,24.655],[104.542,24.71],[104.545,24.742],[104.58,24.797],[104.581,24.817]]]}},{"type":"Feature","properties":{"iso3":"CHN","shapeGroup":"CHN","shapeName":"Guizhou Province","listId":"asia-china-yunnan-province"},"geometry":{"type":"Polygon","coordinates":[[[109.538,26.126],[109.539,26.129],[109.529,26.199],[109.481,26.258],[109.423,26.335],[109.375,26.418],[109.357,26.497],[109.42,26.57],[109.484,26.676],[109.405,26.816],[109.499,26.899],[109.575,26.976],[109.596,27.108],[109.592,27.199],[109.509,27.26],[109.424,27.272],[109.348,27.256],[109.213,27.255],[109.141,27.227],[109.036,27.166],[108.965,27.17],[108.936,27.207],[108.913,27.249],[108.931,27.279],[109.018,27.36],[109.167,27.456],[109.217,27.507],[109.351,27.536],[109.39,27.577],[109.472,27.649],[109.524,27.698],[109.544,27.783],[109.524,27.801],[109.486,27.843],[109.463,27.883],[109.438,27.946],[109.423,28.053],[109.41,28.093],[109.453,28.313],[109.438,28.413],[109.385,28.488],[109.337,28.588],[109.337,28.613],[109.317,28.613],[109.296,28.598],[109.251,28.576],[109.236,28.549],[109.226,28.475],[109.207,28.435],[109.185,28.397],[109.132,28.356],[109.074,28.344],[108.95,28.345],[108.904,28.357],[108.874,28.381],[108.867,28.432],[108.868,28.468],[108.865,28.52],[108.85,28.579],[108.823,28.603],[108.807,28.613],[108.778,28.604],[108.771,28.598],[108.769,28.584],[108.77,28.573],[108.768,28.544],[108.768,28.504],[108.763,28.488],[108.753,28.477],[108.718,28.459],[108.71,28.457],[108.702,28.465],[108.664,28.54],[108.661,28.558],[108.65,28.591],[108.675,28.74],[108.638,28.741],[108.543,28.758],[108.499,28.775],[108.441,28.836],[108.436,28.872],[108.444,28.942],[108.439,29.031],[108.423,29.087],[108.363,29.188],[108.095,29.197],[107.981,29.12],[107.924,29.135],[107.885,29.206],[107.879,29.222],[107.85,29.256],[107.79,29.284],[107.695,29.321],[107.649,29.342],[107.62,29.349],[107.578,29.347],[107.543,29.335],[107.525,29.305],[107.514,29.246],[107.554,29.166],[107.562,29.113],[107.557,29.075],[107.544,29.044],[107.493,28.979],[107.407,28.949],[107.345,28.959],[107.287,28.983],[107.24,29.017],[107.163,29.024],[107.09,28.998],[106.985,28.938],[106.927,28.815],[106.906,28.778],[106.88,28.719],[106.849,28.676],[106.814,28.632],[106.772,28.615],[106.71,28.632],[106.681,28.655],[106.651,28.69],[106.654,28.74],[106.654,28.807],[106.643,28.824],[106.602,28.862],[106.547,28.897],[106.562,28.822],[106.554,28.739],[106.513,28.672],[106.394,28.634],[106.372,28.675],[106.368,28.666],[106.161,28.801],[106.098,28.863],[106.024,28.858],[105.974,28.814],[105.959,28.752],[105.855,28.706],[105.762,28.659],[105.742,28.568],[105.767,28.475],[105.87,28.409],[105.987,28.349],[106.113,28.304],[106.194,28.284],[106.287,28.266],[106.305,28.144],[106.325,28.068],[106.373,28.004],[106.388,27.966],[106.365,27.923],[106.33,27.903],[106.178,27.899],[106.075,27.876],[105.954,27.854],[105.865,27.83],[105.772,27.809],[105.737,27.832],[105.684,27.874],[105.615,27.892],[105.535,27.87],[105.411,27.872],[105.369,27.866],[105.374,27.849],[105.329,27.748],[105.248,27.536],[105.217,27.502],[105.172,27.49],[105.091,27.491],[105.054,27.483],[104.917,27.426],[104.55,27.453],[104.451,27.512],[104.356,27.51],[104.277,27.46],[104.259,27.418],[104.236,27.398],[104.109,27.476],[103.994,27.487],[103.902,27.443],[103.813,27.316],[103.739,27.256],[103.692,27.199],[103.695,27.173],[103.723,27.147],[103.807,27.108],[103.837,27.055],[103.824,27.025],[103.802,26.996],[103.795,26.953],[103.797,26.905],[103.807,26.871],[103.843,26.813],[103.835,26.734],[103.851,26.669],[103.977,26.635],[104.063,26.637],[104.133,26.683],[104.179,26.739],[104.207,26.768],[104.33,26.762],[104.381,26.762],[104.492,26.802],[104.588,26.716],[104.656,26.617],[104.709,26.536],[104.691,26.491],[104.658,26.443],[104.587,26.372],[104.568,26.282],[104.577,26.206],[104.564,26.149],[104.458,25.972],[104.421,25.872],[104.356,25.799],[104.416,25.688],[104.497,25.519],[104.568,25.491],[104.652,25.478],[104.72,25.413],[104.742,25.381],[104.76,25.331],[104.75,25.21],[104.742,25.16],[104.708,25.057],[104.628,24.999],[104.588,24.919],[104.583,24.859],[104.581,24.817],[104.59,24.814],[104.631,24.807],[104.663,24.794],[104.75,24.779],[104.812,24.783],[104.859,24.798],[104.901,24.847],[104.944,24.874],[105.019,24.876],[105.083,24.911],[105.151,25.009],[105.221,25.044],[105.387,25.028],[105.481,25],[105.526,24.912],[105.578,24.889],[105.641,24.898],[105.781,24.861],[105.81,24.827],[105.94,24.813],[105.974,24.785],[106.035,24.781],[106.064,24.795],[106.119,24.817],[106.184,24.849],[106.23,24.882],[106.219,24.91],[106.256,25.056],[106.305,25.057],[106.39,25.078],[106.434,25.106],[106.592,25.173],[106.643,25.223],[106.741,25.268],[106.904,25.288],[106.962,25.302],[106.997,25.318],[107.034,25.365],[107.1,25.432],[107.127,25.472],[107.16,25.565],[107.245,25.607],[107.308,25.621],[107.375,25.621],[107.394,25.607],[107.413,25.533],[107.425,25.499],[107.471,25.462],[107.497,25.434],[107.542,25.404],[107.599,25.392],[107.642,25.408],[107.686,25.405],[107.774,25.357],[107.843,25.286],[107.888,25.255],[107.909,25.281],[108,25.313],[108.029,25.319],[108.073,25.316],[108.121,25.318],[108.139,25.329],[108.17,25.383],[108.187,25.44],[108.258,25.516],[108.292,25.567],[108.323,25.621],[108.494,25.588],[108.643,25.508],[108.679,25.526],[108.801,25.663],[108.84,25.674],[108.94,25.671],[109.015,25.675],[109.068,25.703],[109.084,25.751],[109.058,25.802],[109.044,25.848],[109.06,25.888],[109.128,25.921],[109.254,25.902],[109.314,25.881],[109.383,25.947],[109.524,26.079],[109.538,26.126]]]}},{"type":"Feature","properties":{"iso3":"CHN","shapeGroup":"CHN","shapeName":"Hunan Province","listId":"asia-china-yunnan-province"},"geometry":{"type":"Polygon","coordinates":[[[112.001,24.857],[112.003,24.857],[112.178,24.891],[112.233,24.978],[112.241,25.065],[112.236,25.115],[112.256,25.191],[112.284,25.246],[112.289,25.264],[112.665,25.257],[112.728,25.166],[112.902,25.029],[112.996,25.029],[113.011,25.061],[113.036,25.104],[113.061,25.173],[113.066,25.237],[113.066,25.266],[113.034,25.312],[113.013,25.339],[113.008,25.367],[113.011,25.399],[113.049,25.453],[113.142,25.485],[113.278,25.567],[113.347,25.586],[113.473,25.51],[113.551,25.46],[113.637,25.431],[113.761,25.415],[113.862,25.451],[113.942,25.492],[114.026,25.531],[114.044,25.544],[114.034,25.559],[114.045,25.666],[113.978,25.78],[114.116,25.979],[114.116,26.138],[114.254,26.248],[114.254,26.308],[114.179,26.297],[114.101,26.262],[114.03,26.29],[114.071,26.45],[114.149,26.534],[114.162,26.676],[113.99,26.766],[113.92,26.856],[113.917,26.939],[113.998,27.056],[113.872,27.198],[113.859,27.261],[113.943,27.364],[113.939,27.431],[113.864,27.497],[113.757,27.424],[113.714,27.469],[113.678,27.616],[113.69,27.759],[113.722,27.857],[113.801,27.93],[113.832,28.003],[113.844,28.07],[113.951,28.115],[114.022,28.125],[114.097,28.181],[114.172,28.31],[114.219,28.365],[114.318,28.459],[114.314,28.556],[114.235,28.684],[114.239,28.866],[114.04,29.164],[114.049,29.197],[113.977,29.201],[113.958,29.214],[113.896,29.226],[113.875,29.232],[113.846,29.201],[113.822,29.205],[113.803,29.256],[113.793,29.323],[113.74,29.381],[113.728,29.473],[113.756,29.544],[113.804,29.616],[113.814,29.686],[113.778,29.746],[113.739,29.784],[113.724,29.813],[113.713,29.838],[113.702,29.875],[113.699,29.936],[113.644,29.935],[113.596,29.895],[113.551,29.86],[113.534,29.845],[113.467,29.814],[113.339,29.72],[113.316,29.65],[113.255,29.608],[113.19,29.596],[113.13,29.588],[113.067,29.61],[113.056,29.64],[113.046,29.696],[113.048,29.735],[113.063,29.81],[113.027,29.857],[112.904,29.866],[112.801,29.813],[112.68,29.755],[112.57,29.751],[112.539,29.747],[112.502,29.713],[112.453,29.699],[112.4,29.693],[112.334,29.737],[112.251,29.794],[112.121,29.901],[112.072,29.943],[111.949,30.009],[111.508,30.059],[111.468,30.088],[111.443,30.115],[111.411,30.136],[111.34,30.169],[111.283,30.179],[111.195,30.189],[111.123,30.214],[110.905,30.236],[110.82,30.196],[110.768,30.176],[110.673,30.172],[110.602,30.158],[110.592,30.126],[110.606,30.083],[110.686,30.014],[110.731,29.971],[110.747,29.912],[110.742,29.866],[110.703,29.832],[110.557,29.774],[110.337,29.768],[110.281,29.781],[110.238,29.805],[110.208,29.842],[110.18,29.862],[110.14,29.882],[110.079,29.89],[110.016,29.882],[109.928,29.853],[109.822,29.796],[109.675,29.746],[109.534,29.673],[109.501,29.592],[109.486,29.535],[109.413,29.43],[109.367,29.353],[109.329,29.24],[109.347,29.236],[109.337,28.613],[109.337,28.588],[109.385,28.488],[109.438,28.413],[109.453,28.313],[109.41,28.093],[109.423,28.053],[109.438,27.946],[109.463,27.883],[109.486,27.843],[109.524,27.801],[109.544,27.783],[109.524,27.698],[109.472,27.649],[109.39,27.577],[109.351,27.536],[109.217,27.507],[109.167,27.456],[109.018,27.36],[108.931,27.279],[108.913,27.249],[108.936,27.207],[108.965,27.17],[109.036,27.166],[109.141,27.227],[109.213,27.255],[109.348,27.256],[109.424,27.272],[109.509,27.26],[109.592,27.199],[109.596,27.108],[109.575,26.976],[109.499,26.899],[109.405,26.816],[109.484,26.676],[109.42,26.57],[109.357,26.497],[109.375,26.418],[109.423,26.335],[109.481,26.258],[109.529,26.199],[109.539,26.129],[109.538,26.126],[109.67,26.117],[109.682,26.089],[109.737,26.043],[109.856,26.043],[109.935,26.11],[109.966,26.174],[109.99,26.241],[110.002,26.301],[110.033,26.336],[110.116,26.35],[110.159,26.329],[110.187,26.287],[110.195,26.209],[110.207,26.124],[110.38,26.113],[110.72,26.439],[110.838,26.418],[110.933,26.407],[111.004,26.439],[111.031,26.46],[111.13,26.469],[111.225,26.424],[111.29,26.397],[111.317,26.375],[111.3,26.106],[111.323,26.06],[111.355,26.025],[111.406,26.007],[111.513,26.004],[111.497,25.908],[111.477,25.869],[111.434,25.808],[111.406,25.748],[111.398,25.673],[111.378,25.588],[111.378,25.545],[111.256,25.468],[111.244,25.443],[111.232,25.403],[111.209,25.361],[111.148,25.305],[111.11,25.273],[111.067,25.24],[111.052,25.146],[111.099,25.074],[111.105,25.055],[111.23,25.142],[111.281,25.184],[111.317,25.226],[111.454,25.212],[111.511,25.133],[111.518,25.104],[111.519,25.058],[111.511,25.003],[111.519,24.915],[111.512,24.869],[111.514,24.82],[111.524,24.765],[111.563,24.755],[111.627,24.8],[111.656,24.843],[111.698,24.886],[111.769,24.891],[111.914,24.869],[111.969,24.862],[112.001,24.857]]]}},{"type":"Feature","properties":{"iso3":"CHN","shapeGroup":"CHN","shapeName":"Sichuan Province","listId":"asia-china-tibet-autonomous-region"},"geometry":{"type":"Polygon","coordinates":[[[105.369,27.866],[105.411,27.872],[105.535,27.87],[105.615,27.892],[105.684,27.874],[105.737,27.832],[105.772,27.809],[105.865,27.83],[105.954,27.854],[106.075,27.876],[106.178,27.899],[106.33,27.903],[106.365,27.923],[106.388,27.966],[106.373,28.004],[106.325,28.068],[106.305,28.144],[106.287,28.266],[106.194,28.284],[106.113,28.304],[105.987,28.349],[105.87,28.409],[105.767,28.475],[105.742,28.568],[105.762,28.659],[105.855,28.706],[105.959,28.752],[105.974,28.814],[106.024,28.858],[106.098,28.863],[106.161,28.801],[106.368,28.666],[106.372,28.675],[106.388,28.708],[106.38,28.774],[106.355,28.903],[106.272,29.011],[106.204,29.04],[106.131,29.062],[105.873,29.099],[105.853,29.185],[105.833,29.289],[105.764,29.399],[105.701,29.401],[105.608,29.414],[105.509,29.48],[105.446,29.61],[105.386,29.68],[105.373,29.728],[105.469,29.825],[105.598,29.91],[105.843,30.052],[105.86,30.113],[105.838,30.177],[105.767,30.273],[105.754,30.336],[105.764,30.386],[105.82,30.464],[105.959,30.523],[106.057,30.527],[106.161,30.48],[106.282,30.427],[106.338,30.401],[106.492,30.364],[106.537,30.388],[106.605,30.414],[106.668,30.464],[106.739,30.384],[106.777,30.329],[106.87,30.242],[106.961,30.185],[107.156,30.17],[107.259,30.242],[107.373,30.382],[107.512,30.499],[107.603,30.611],[107.627,30.719],[107.635,30.831],[107.69,30.899],[107.757,30.929],[107.978,30.906],[108.065,30.923],[108.147,30.967],[108.199,31.044],[108.25,31.176],[108.337,31.358],[108.483,31.526],[108.613,31.634],[108.735,31.705],[108.759,31.792],[108.743,31.832],[108.656,31.896],[108.589,31.949],[108.577,31.999],[108.609,32.05],[108.684,32.14],[108.696,32.24],[108.699,32.3],[108.593,32.373],[108.404,32.377],[108.076,32.273],[107.761,32.487],[107.599,32.51],[107.469,32.613],[107.421,32.576],[107.228,32.583],[107.118,32.822],[106.885,32.832],[106.625,32.759],[106.329,32.713],[106.187,32.756],[106.175,32.865],[106.128,32.971],[105.82,32.988],[105.826,32.994],[105.578,32.998],[105.482,32.924],[105.492,32.758],[105.199,32.654],[105.088,32.707],[105.009,32.714],[104.903,32.754],[104.671,32.771],[104.474,32.949],[104.489,33.136],[104.434,33.188],[104.386,33.283],[104.302,33.46],[104.239,33.463],[104.169,33.416],[104.075,33.328],[103.977,33.323],[103.904,33.34],[103.545,33.614],[103.467,33.801],[103.272,33.837],[103.217,33.902],[103.181,34.002],[103.202,34.157],[103.199,34.247],[103.131,34.27],[103.043,34.324],[102.949,34.314],[102.752,34.209],[102.598,34.163],[102.427,34.134],[102.278,34.032],[102.275,33.952],[102.333,33.786],[102.321,33.786],[102.348,33.755],[102.376,33.68],[102.494,33.644],[102.498,33.506],[102.427,33.407],[102.399,33.216],[102.269,33.209],[102.174,33.295],[102.001,33.298],[101.819,33.166],[101.776,33.127],[101.681,33.242],[101.595,33.331],[101.492,33.351],[101.37,33.311],[101.196,33.229],[101.078,33.093],[101.058,33.004],[101.078,32.882],[100.991,32.746],[100.715,32.716],[100.502,32.766],[100.293,32.938],[100.013,33.169],[99.918,33.334],[99.665,33.328],[99.508,33.232],[99.401,33.226],[99.176,33.285],[99.026,33.381],[98.861,33.44],[98.659,33.381],[98.537,33.387],[98.229,33.381],[98.079,33.4],[97.937,33.374],[97.661,33.275],[97.527,33.113],[97.574,33.044],[97.594,32.934],[97.526,32.854],[97.43,32.832],[97.515,32.693],[97.701,32.58],[97.949,32.536],[98.06,32.51],[98.178,32.437],[98.293,32.387],[98.296,32.22],[98.442,32.11],[98.486,31.969],[98.482,31.842],[98.517,31.785],[98.592,31.678],[98.726,31.594],[98.833,31.516],[98.876,31.463],[98.849,31.392],[98.79,31.314],[98.675,31.308],[98.68,31.212],[98.808,31.078],[98.836,31.031],[98.841,30.957],[98.854,30.912],[98.909,30.849],[98.97,30.81],[98.988,30.764],[99.006,30.514],[98.996,30.34],[99.004,30.196],[99.109,30.085],[99.099,29.976],[99.063,29.846],[99.058,29.724],[99.121,29.361],[99.121,29.34],[99.121,29.278],[99.162,29.054],[99.164,28.932],[99.21,28.75],[99.215,28.535],[99.268,28.413],[99.316,28.353],[99.392,28.246],[99.485,28.322],[99.505,28.36],[99.659,28.375],[99.816,28.539],[99.897,28.599],[99.937,28.637],[100.003,28.653],[100.071,28.655],[100.142,28.617],[100.205,28.557],[100.174,28.471],[100.124,28.386],[100.124,28.317],[100.154,28.206],[100.177,28.144],[100.182,28.086],[100.51,27.962],[100.632,27.976],[100.758,27.874],[100.896,27.738],[100.979,27.672],[100.995,27.592],[101.011,27.522],[101.05,27.455],[101.157,27.406],[101.243,27.308],[101.273,27.05],[101.419,26.937],[101.492,26.849],[101.53,26.798],[101.525,26.723],[101.515,26.669],[101.523,26.637],[101.651,26.531],[101.651,26.393],[101.682,26.323],[101.714,26.314],[101.793,26.278],[101.841,26.221],[101.863,26.201],[101.962,26.176],[102.055,26.172],[102.146,26.194],[102.265,26.264],[102.326,26.317],[102.424,26.384],[102.467,26.403],[102.512,26.427],[102.558,26.445],[102.606,26.445],[102.636,26.432],[102.671,26.382],[102.719,26.332],[102.772,26.332],[102.841,26.373],[102.924,26.412],[103.025,26.484],[103.06,26.518],[103.062,26.664],[103.071,26.77],[103.07,26.832],[103.018,26.888],[102.995,26.938],[102.95,26.983],[102.954,27.099],[102.962,27.176],[102.977,27.274],[102.992,27.357],[103.015,27.429],[103.022,27.49],[103.053,27.521],[103.093,27.534],[103.139,27.537],[103.199,27.566],[103.28,27.657],[103.414,27.785],[103.573,27.908],[103.571,28.007],[103.583,28.097],[103.555,28.143],[103.555,28.237],[103.618,28.323],[103.67,28.33],[103.76,28.348],[103.91,28.379],[103.938,28.466],[103.875,28.556],[103.867,28.639],[103.918,28.701],[103.977,28.712],[104.06,28.705],[104.19,28.719],[104.301,28.75],[104.4,28.705],[104.407,28.597],[104.344,28.5],[104.356,28.421],[104.427,28.355],[104.49,28.316],[104.486,28.188],[104.459,28.115],[104.506,28.031],[104.585,27.989],[104.822,27.976],[105.027,28.052],[105.054,28.17],[105.129,28.209],[105.208,28.195],[105.303,28.115],[105.342,28.077],[105.335,27.993],[105.369,27.866]]]}},{"type":"Feature","properties":{"iso3":"CHN","shapeGroup":"CHN","shapeName":"Tibet Autonomous Region","listId":"asia-china-tibet-autonomous-region"},"geometry":{"type":"Polygon","coordinates":[[[99.121,29.34],[99.121,29.361],[99.058,29.724],[99.063,29.846],[99.099,29.976],[99.109,30.085],[99.004,30.196],[98.996,30.34],[99.006,30.514],[98.988,30.764],[98.97,30.81],[98.909,30.849],[98.854,30.912],[98.841,30.957],[98.836,31.031],[98.808,31.078],[98.68,31.212],[98.675,31.308],[98.79,31.314],[98.849,31.392],[98.876,31.463],[98.833,31.516],[98.726,31.594],[98.592,31.678],[98.517,31.785],[98.482,31.842],[98.486,31.969],[98.442,32.11],[98.296,32.22],[98.293,32.387],[98.178,32.437],[98.06,32.51],[97.949,32.536],[97.701,32.58],[97.515,32.693],[97.43,32.832],[97.21,32.782],[97.19,32.72],[97.251,32.646],[97.238,32.546],[97.2,32.456],[97.132,32.345],[97.137,32.256],[96.965,32.053],[96.774,31.768],[96.651,31.711],[96.462,31.805],[96.316,31.815],[96.158,31.728],[96.06,31.728],[95.803,31.855],[95.606,31.855],[95.507,31.993],[95.46,32.19],[95.29,32.23],[95.168,32.273],[94.994,32.397],[94.912,32.51],[94.726,32.593],[94.489,32.59],[94.261,32.595],[94.168,32.605],[93.529,32.55],[93.289,32.618],[93.135,32.646],[92.976,32.633],[92.827,32.722],[92.67,32.729],[92.489,32.693],[92.327,32.714],[92.251,32.746],[92.183,32.799],[92.042,32.881],[91.946,32.945],[91.807,32.994],[91.708,33.002],[91.517,33.002],[91.479,33.017],[91.441,33.047],[91.312,33.061],[91.244,33.061],[91.153,33.068],[91.054,33.093],[90.986,33.14],[90.852,33.138],[90.673,33.144],[90.451,33.138],[90.413,33.222],[90.375,33.283],[90.353,33.347],[90.289,33.433],[90.229,33.507],[90.156,33.58],[90.009,33.717],[89.989,33.755],[89.954,33.902],[89.918,33.916],[89.885,33.956],[89.807,33.992],[89.726,34.088],[89.59,34.222],[89.562,34.265],[89.559,34.297],[89.566,34.368],[89.559,34.408],[89.58,34.445],[89.582,34.481],[89.549,34.495],[89.507,34.524],[89.481,34.562],[89.467,34.616],[89.469,34.685],[89.504,34.738],[89.768,34.782],[89.797,34.837],[89.821,34.946],[89.727,35.044],[89.745,35.191],[89.78,35.329],[89.824,35.439],[89.916,35.629],[89.887,35.868],[89.764,35.92],[89.593,35.932],[89.572,36.02],[89.722,36.073],[89.842,36.15],[89.82,36.299],[89.603,36.281],[89.323,36.229],[89.187,36.272],[89.01,36.322],[88.887,36.36],[88.801,36.372],[88.725,36.395],[88.518,36.455],[88.388,36.504],[88.245,36.528],[88.03,36.545],[87.835,36.546],[87.452,36.504],[87.24,36.346],[86.463,36.229],[86.284,36.186],[86.141,36.107],[85.959,35.97],[85.684,35.787],[85.579,35.749],[85.472,35.75],[85.338,35.772],[85.152,35.787],[84.936,35.696],[84.76,35.633],[84.413,35.514],[84.333,35.47],[84.204,35.435],[84.061,35.491],[83.922,35.471],[83.903,35.49],[83.761,35.466],[83.709,35.476],[83.275,35.685],[83.209,35.685],[83.063,35.669],[82.911,35.718],[82.611,35.675],[82.437,35.737],[82.296,35.722],[82.099,35.617],[82.007,35.528],[81.954,35.371],[81.896,35.253],[81.599,35.167],[81.547,35.222],[81.441,35.323],[81.318,35.348],[81.148,35.369],[80.985,35.307],[80.809,35.341],[80.445,35.418],[80.394,35.454],[80.266,35.51],[80.246,35.433],[80.205,35.34],[80.12,35.232],[79.986,35.085],[80.017,34.977],[79.997,34.959],[79.912,34.92],[79.853,34.914],[79.878,34.875],[79.921,34.765],[79.943,34.669],[79.773,34.407],[79.477,34.463],[79.295,34.425],[79.206,34.432],[79.098,34.407],[78.984,34.356],[78.994,34.354],[79.029,34.224],[78.975,34.13],[78.737,34.049],[78.872,33.716],[78.888,33.432],[79.067,33.255],[79.241,33.165],[79.164,33.056],[79.24,32.858],[79.299,32.721],[79.306,32.511],[79.001,32.338],[78.828,32.429],[78.769,32.613],[78.467,32.514],[78.547,32.32],[78.526,32.238],[78.519,32.039],[78.758,31.889],[78.765,31.744],[78.838,31.585],[78.789,31.425],[78.852,31.259],[79.081,31.001],[79.362,31.025],[79.59,30.888],[79.864,30.9],[80.114,30.787],[80.208,30.602],[80.367,30.516],[80.672,30.384],[80.898,30.249],[81.088,30.162],[81.258,29.919],[81.692,30.336],[81.771,30.195],[82.172,30.112],[82.415,29.929],[82.616,29.924],[82.843,29.675],[82.99,29.661],[83.369,29.411],[83.434,29.184],[83.699,28.99],[83.808,29.033],[83.932,29.255],[84.079,29.227],[84.16,29.08],[84.192,28.729],[84.604,28.667],[84.913,28.525],[85.092,28.601],[85.173,28.563],[85.135,28.439],[85.265,28.21],[85.569,28.234],[85.921,28.052],[86.002,27.875],[86.17,28.004],[86.36,27.861],[86.5,27.87],[86.701,28.033],[87.32,27.748],[87.514,27.845],[87.76,27.755],[88.547,28.017],[88.691,28.069],[88.911,27.935],[88.894,27.785],[88.835,27.478],[88.936,27.357],[89.233,27.703],[89.529,27.995],[89.978,28.271],[90.409,28.211],[90.68,27.98],[90.883,27.95],[91.341,27.98],[91.544,27.815],[92.06,27.703],[92.021,27.44],[92.125,27.28],[92.017,27.108],[92.132,26.888],[92.586,26.935],[92.787,26.953],[93.089,26.904],[93.432,26.944],[93.734,27.012],[93.848,27.179],[94.105,27.41],[94.257,27.557],[94.573,27.669],[94.855,27.722],[95.136,27.87],[95.337,28.047],[95.543,28.157],[95.868,28.286],[96.084,28.181],[96.345,28.176],[96.605,28.076],[96.93,27.87],[97.287,27.746],[97.417,28.062],[97.352,28.277],[97.656,28.496],[97.759,28.496],[97.894,28.334],[98.035,28.339],[98.154,28.213],[98.264,28.287],[98.369,28.377],[98.506,28.307],[98.674,28.384],[98.655,28.638],[98.668,28.741],[98.697,28.855],[98.674,28.971],[98.83,29.016],[98.936,29.132],[98.931,29.273],[98.981,29.318],[99.048,29.339],[99.121,29.34]]]}},{"type":"Feature","properties":{"iso3":"CHN","shapeGroup":"CHN","shapeName":"Qinghai Province","listId":"asia-china-tibet-autonomous-region"},"geometry":{"type":"Polygon","coordinates":[[[102.321,33.786],[101.921,33.784],[101.901,33.849],[101.819,33.98],[101.725,34.043],[101.485,34.118],[101.136,34.118],[101.014,34.193],[101.033,34.499],[101.197,34.504],[101.331,34.396],[101.525,34.303],[101.696,34.254],[101.806,34.253],[101.906,34.275],[102.008,34.5],[101.955,34.633],[101.948,34.962],[102.053,34.994],[102.2,35.031],[102.318,35.096],[102.415,35.191],[102.427,35.269],[102.328,35.383],[102.412,35.498],[102.506,35.536],[102.608,35.693],[102.742,35.636],[102.777,35.654],[102.995,35.941],[103.016,36.141],[103.078,36.298],[102.947,36.409],[102.901,36.564],[102.732,36.627],[102.711,36.874],[102.545,36.991],[102.545,37.129],[102.525,37.214],[102.409,37.345],[102.366,37.495],[102.124,37.627],[102.124,37.759],[102.048,37.769],[101.841,37.667],[101.593,37.763],[101.497,37.761],[101.172,37.906],[101.121,38.032],[100.795,38.236],[100.581,38.336],[100.457,38.427],[100.255,38.498],[100.201,38.351],[100.035,38.351],[99.507,38.798],[99.4,38.797],[99.137,39.006],[98.796,39.085],[98.62,38.973],[98.481,39.07],[98.209,38.837],[97.834,39.083],[97.122,39.208],[96.986,39.109],[97.094,38.949],[97.088,38.726],[96.897,38.493],[96.886,38.257],[96.693,38.215],[96.45,38.126],[96.202,38.237],[95.854,38.203],[95.255,38.34],[94.624,38.225],[94.363,38.59],[93.977,38.534],[93.827,38.713],[93.306,38.664],[93.101,38.891],[92.646,39.035],[92.634,39.025],[92.434,39.078],[92.126,38.919],[91.866,38.858],[91.46,38.784],[90.694,38.688],[90.233,38.408],[90.339,37.833],[91.179,37.456],[91.236,37.385],[91.113,37.266],[91.148,37.091],[90.986,36.98],[90.863,36.95],[90.672,36.822],[90.708,36.687],[90.79,36.527],[90.913,36.529],[91.013,36.538],[91.089,36.503],[91.08,36.442],[91.052,36.403],[90.894,36.368],[90.774,36.313],[90.576,36.218],[90.319,36.186],[89.976,36.301],[89.82,36.299],[89.842,36.15],[89.722,36.073],[89.572,36.02],[89.593,35.932],[89.764,35.92],[89.887,35.868],[89.916,35.629],[89.824,35.439],[89.78,35.329],[89.745,35.191],[89.727,35.044],[89.821,34.946],[89.797,34.837],[89.768,34.782],[89.504,34.738],[89.469,34.685],[89.467,34.616],[89.481,34.562],[89.507,34.524],[89.549,34.495],[89.582,34.481],[89.58,34.445],[89.559,34.408],[89.566,34.368],[89.559,34.297],[89.562,34.265],[89.59,34.222],[89.726,34.088],[89.807,33.992],[89.885,33.956],[89.918,33.916],[89.954,33.902],[89.989,33.755],[90.009,33.717],[90.156,33.58],[90.229,33.507],[90.289,33.433],[90.353,33.347],[90.375,33.283],[90.413,33.222],[90.451,33.138],[90.673,33.144],[90.852,33.138],[90.986,33.14],[91.054,33.093],[91.153,33.068],[91.244,33.061],[91.312,33.061],[91.441,33.047],[91.479,33.017],[91.517,33.002],[91.708,33.002],[91.807,32.994],[91.946,32.945],[92.042,32.881],[92.183,32.799],[92.251,32.746],[92.327,32.714],[92.489,32.693],[92.67,32.729],[92.827,32.722],[92.976,32.633],[93.135,32.646],[93.289,32.618],[93.529,32.55],[94.168,32.605],[94.261,32.595],[94.489,32.59],[94.726,32.593],[94.912,32.51],[94.994,32.397],[95.168,32.273],[95.29,32.23],[95.46,32.19],[95.507,31.993],[95.606,31.855],[95.803,31.855],[96.06,31.728],[96.158,31.728],[96.316,31.815],[96.462,31.805],[96.651,31.711],[96.774,31.768],[96.965,32.053],[97.137,32.256],[97.132,32.345],[97.2,32.456],[97.238,32.546],[97.251,32.646],[97.19,32.72],[97.21,32.782],[97.43,32.832],[97.526,32.854],[97.594,32.934],[97.574,33.044],[97.527,33.113],[97.661,33.275],[97.937,33.374],[98.079,33.4],[98.229,33.381],[98.537,33.387],[98.659,33.381],[98.861,33.44],[99.026,33.381],[99.176,33.285],[99.401,33.226],[99.508,33.232],[99.665,33.328],[99.918,33.334],[100.013,33.169],[100.293,32.938],[100.502,32.766],[100.715,32.716],[100.991,32.746],[101.078,32.882],[101.058,33.004],[101.078,33.093],[101.196,33.229],[101.37,33.311],[101.492,33.351],[101.595,33.331],[101.681,33.242],[101.776,33.127],[101.819,33.166],[102.001,33.298],[102.174,33.295],[102.269,33.209],[102.399,33.216],[102.427,33.407],[102.498,33.506],[102.494,33.644],[102.376,33.68],[102.348,33.755],[102.321,33.786]]]}},{"type":"Feature","properties":{"iso3":"CHN","shapeGroup":"CHN","shapeName":"Gansu Province","listId":"asia-china-tibet-autonomous-region"},"geometry":{"type":"Polygon","coordinates":[[[105.826,32.994],[105.997,33.186],[106.072,33.285],[106.013,33.453],[105.887,33.522],[105.891,33.585],[106.009,33.657],[106.139,33.703],[106.546,33.696],[106.554,33.962],[106.506,34.07],[106.625,34.246],[106.743,34.406],[106.767,34.49],[106.621,34.578],[106.427,34.636],[106.439,34.724],[106.573,34.818],[106.605,34.976],[106.554,35.035],[106.577,35.138],[106.865,35.202],[107.078,35.173],[107.283,35.031],[107.879,35.122],[107.828,35.222],[107.824,35.389],[107.883,35.418],[108.041,35.341],[108.242,35.402],[108.538,35.38],[108.648,35.437],[108.688,35.636],[108.577,35.752],[108.613,35.992],[108.767,36.081],[108.783,36.428],[108.652,36.532],[108.55,36.561],[108.329,36.703],[108.207,36.662],[107.942,36.849],[107.686,36.915],[107.425,37],[107.335,37.186],[107.347,37.219],[107.038,37.194],[106.888,37.28],[106.749,37.282],[106.633,37.009],[106.718,36.919],[106.73,36.87],[106.546,36.799],[106.532,36.55],[106.582,36.391],[107.019,36.18],[106.976,36.018],[106.926,35.853],[106.795,35.797],[106.668,35.824],[106.562,35.775],[106.549,35.479],[106.365,35.42],[106.18,35.516],[105.957,35.533],[105.835,35.776],[105.536,35.837],[105.41,35.981],[105.4,36.105],[105.53,36.239],[105.504,36.418],[105.358,36.616],[105.317,36.857],[105.295,36.975],[104.995,37.189],[104.897,37.318],[104.751,37.308],[104.759,37.452],[104.543,37.574],[104.51,37.546],[104.306,37.527],[103.979,37.623],[103.964,37.694],[103.635,37.799],[103.618,38.055],[103.726,38.224],[103.731,38.422],[104.022,38.466],[104.139,38.565],[104.155,38.773],[104.121,38.875],[104.248,39.008],[104.219,39.216],[103.834,39.455],[103.38,39.468],[102.832,39.084],[102.375,38.944],[101.608,38.923],[101.393,38.96],[101.279,39.036],[101.119,39.044],[100.918,39.154],[100.897,39.377],[100.925,39.457],[100.887,39.527],[100.44,39.537],[100.289,39.683],[99.98,39.796],[99.817,39.979],[100.002,40.173],[100.435,40.454],[100.419,40.759],[100.137,40.915],[99.059,40.861],[98.609,40.562],[98.403,40.537],[98.235,40.615],[97.997,40.845],[97.78,40.976],[97.428,41.461],[97.401,41.68],[97.574,41.958],[97.406,42.168],[97.367,42.546],[97.287,42.528],[96.404,42.66],[96.284,42.401],[96.367,42.223],[96.052,42.004],[95.507,41.922],[95.184,41.733],[94.892,41.672],[94.635,41.542],[94.473,41.327],[94.095,41.109],[93.708,40.781],[93.673,40.717],[93.635,40.61],[93.405,40.456],[92.948,40.42],[92.885,40.05],[92.919,39.454],[92.889,39.221],[92.618,39.044],[92.646,39.035],[93.101,38.891],[93.306,38.664],[93.827,38.713],[93.977,38.534],[94.363,38.59],[94.624,38.225],[95.255,38.34],[95.854,38.203],[96.202,38.237],[96.45,38.126],[96.693,38.215],[96.886,38.257],[96.897,38.493],[97.088,38.726],[97.094,38.949],[96.986,39.109],[97.122,39.208],[97.834,39.083],[98.209,38.837],[98.481,39.07],[98.62,38.973],[98.796,39.085],[99.137,39.006],[99.4,38.797],[99.507,38.798],[100.035,38.351],[100.201,38.351],[100.255,38.498],[100.457,38.427],[100.581,38.336],[100.795,38.236],[101.121,38.032],[101.172,37.906],[101.497,37.761],[101.593,37.763],[101.841,37.667],[102.048,37.769],[102.124,37.759],[102.124,37.627],[102.366,37.495],[102.409,37.345],[102.525,37.214],[102.545,37.129],[102.545,36.991],[102.711,36.874],[102.732,36.627],[102.901,36.564],[102.947,36.409],[103.078,36.298],[103.016,36.141],[102.995,35.941],[102.777,35.654],[102.742,35.636],[102.608,35.693],[102.506,35.536],[102.412,35.498],[102.328,35.383],[102.427,35.269],[102.415,35.191],[102.318,35.096],[102.2,35.031],[102.053,34.994],[101.948,34.962],[101.955,34.633],[102.008,34.5],[101.906,34.275],[101.806,34.253],[101.696,34.254],[101.525,34.303],[101.331,34.396],[101.197,34.504],[101.033,34.499],[101.014,34.193],[101.136,34.118],[101.485,34.118],[101.725,34.043],[101.819,33.98],[101.901,33.849],[101.921,33.784],[102.321,33.786],[102.333,33.786],[102.275,33.952],[102.278,34.032],[102.427,34.134],[102.598,34.163],[102.752,34.209],[102.949,34.314],[103.043,34.324],[103.131,34.27],[103.199,34.247],[103.202,34.157],[103.181,34.002],[103.217,33.902],[103.272,33.837],[103.467,33.801],[103.545,33.614],[103.904,33.34],[103.977,33.323],[104.075,33.328],[104.169,33.416],[104.239,33.463],[104.302,33.46],[104.386,33.283],[104.434,33.188],[104.489,33.136],[104.474,32.949],[104.671,32.771],[104.903,32.754],[105.009,32.714],[105.088,32.707],[105.199,32.654],[105.492,32.758],[105.482,32.924],[105.578,32.998],[105.826,32.994]]]}},{"type":"Feature","properties":{"iso3":"CHN","shapeGroup":"CHN","shapeName":"Xinjiang Uyghur Autonomous Region","listId":"asia-china-tibet-autonomous-region"},"geometry":{"type":"Polygon","coordinates":[[[89.82,36.299],[89.976,36.301],[90.319,36.186],[90.576,36.218],[90.774,36.313],[90.894,36.368],[91.052,36.403],[91.08,36.442],[91.089,36.503],[91.013,36.538],[90.913,36.529],[90.79,36.527],[90.708,36.687],[90.672,36.822],[90.863,36.95],[90.986,36.98],[91.148,37.091],[91.113,37.266],[91.236,37.385],[91.179,37.456],[90.339,37.833],[90.233,38.408],[90.694,38.688],[91.46,38.784],[91.866,38.858],[92.126,38.919],[92.434,39.078],[92.634,39.025],[92.646,39.035],[92.618,39.044],[92.889,39.221],[92.919,39.454],[92.885,40.05],[92.948,40.42],[93.405,40.456],[93.635,40.61],[93.673,40.717],[93.708,40.781],[94.095,41.109],[94.473,41.327],[94.635,41.542],[94.892,41.672],[95.184,41.733],[95.507,41.922],[96.052,42.004],[96.367,42.223],[96.284,42.401],[96.404,42.66],[96.345,42.803],[95.944,43.124],[95.548,43.875],[95.331,43.992],[95.375,44.174],[94.954,44.21],[94.698,44.294],[94.549,44.401],[94.299,44.485],[93.966,44.593],[93.516,44.877],[92.996,44.947],[92.102,44.904],[90.845,45.13],[90.71,45.23],[90.694,45.519],[91.041,45.95],[90.925,46.222],[91.068,46.471],[91.051,46.676],[90.596,47.109],[90.472,47.389],[90.423,47.502],[90.103,47.798],[89.832,47.78],[89.442,48.008],[89.318,47.907],[88.928,47.903],[88.602,48.341],[88.103,48.516],[88.079,48.672],[87.805,48.841],[87.926,49.005],[87.936,49.148],[87.659,49.137],[87.538,49.053],[87.288,49.151],[86.823,49.051],[86.804,48.8],[86.706,48.578],[86.267,48.434],[85.774,48.434],[85.563,47.943],[85.59,47.498],[85.769,47.278],[85.579,47.091],[85.233,47.017],[84.929,46.858],[84.68,47.037],[83.949,47.025],[83.256,47.256],[83.051,47.251],[82.995,46.954],[82.77,46.586],[82.732,46.507],[82.531,46.165],[82.51,45.994],[82.34,45.568],[82.617,45.435],[82.638,45.371],[82.607,45.225],[82.493,45.176],[82.309,45.254],[81.945,45.206],[81.671,45.393],[80.079,45.086],[79.889,44.921],[79.972,44.835],[80.201,44.848],[80.433,44.752],[80.298,44.552],[80.367,44.252],[80.305,44.143],[80.707,43.53],[80.667,43.353],[80.785,43.181],[80.423,43.048],[80.505,42.912],[80.27,42.839],[80.167,42.656],[80.237,42.512],[80.216,42.424],[80.237,42.312],[80.254,42.151],[80.135,42.027],[79.886,42.048],[79.509,41.856],[79.194,41.799],[78.467,41.493],[78.065,41.105],[77.895,41.113],[77.451,41.05],[77.045,41.105],[76.799,41.076],[76.525,40.633],[76.303,40.446],[76.019,40.475],[75.859,40.348],[75.714,40.388],[75.648,40.575],[75.572,40.691],[75.215,40.536],[74.83,40.589],[74.798,40.409],[74.446,40.335],[74.359,40.186],[74.056,40.182],[73.893,40.053],[73.844,39.929],[73.899,39.792],[73.828,39.579],[73.628,39.533],[73.606,39.341],[73.779,39.097],[73.709,38.92],[73.893,38.591],[74.072,38.73],[74.31,38.743],[74.787,38.561],[74.825,38.485],[74.771,38.268],[74.885,38.076],[74.955,37.606],[75.101,37.533],[75.101,37.391],[74.446,37.249],[74.543,37.085],[74.933,36.985],[75.156,37.011],[75.351,36.946],[75.475,36.743],[75.662,36.79],[75.846,36.696],[75.977,36.303],[75.95,36.115],[76.212,35.83],[76.518,35.83],[76.685,35.677],[76.962,35.587],[77.26,35.494],[77.701,35.454],[77.909,35.451],[78.047,35.531],[77.985,35.245],[78.283,34.631],[78.436,34.557],[78.651,34.523],[78.807,34.388],[78.984,34.356],[79.098,34.407],[79.206,34.432],[79.295,34.425],[79.477,34.463],[79.773,34.407],[79.943,34.669],[79.921,34.765],[79.878,34.875],[79.853,34.914],[79.912,34.92],[79.997,34.959],[80.017,34.977],[79.986,35.085],[80.12,35.232],[80.205,35.34],[80.246,35.433],[80.266,35.51],[80.394,35.454],[80.445,35.418],[80.809,35.341],[80.985,35.307],[81.148,35.369],[81.318,35.348],[81.441,35.323],[81.547,35.222],[81.599,35.167],[81.896,35.253],[81.954,35.371],[82.007,35.528],[82.099,35.617],[82.296,35.722],[82.437,35.737],[82.611,35.675],[82.911,35.718],[83.063,35.669],[83.209,35.685],[83.275,35.685],[83.709,35.476],[83.761,35.466],[83.903,35.49],[83.922,35.471],[84.061,35.491],[84.204,35.435],[84.333,35.47],[84.413,35.514],[84.76,35.633],[84.936,35.696],[85.152,35.787],[85.338,35.772],[85.472,35.75],[85.579,35.749],[85.684,35.787],[85.959,35.97],[86.141,36.107],[86.284,36.186],[86.463,36.229],[87.24,36.346],[87.452,36.504],[87.835,36.546],[88.03,36.545],[88.245,36.528],[88.388,36.504],[88.518,36.455],[88.725,36.395],[88.801,36.372],[88.887,36.36],[89.01,36.322],[89.187,36.272],[89.323,36.229],[89.603,36.281],[89.82,36.299]]]}},{"type":"Feature","properties":{"iso3":"CHN","shapeGroup":"CHN","shapeName":"Inner Mongolia Autonomous Region","listId":"asia-china-tibet-autonomous-region"},"geometry":{"type":"Polygon","coordinates":[[[107.581,37.826],[107.583,37.822],[108.099,37.86],[108.193,37.926],[108.307,37.912],[108.404,37.761],[108.689,37.75],[108.761,37.8],[108.852,37.967],[109.004,38.182],[109.171,38.278],[109.295,38.408],[109.386,38.511],[109.493,38.574],[109.562,38.704],[109.774,38.72],[109.909,38.796],[109.916,38.861],[109.85,38.944],[109.92,39.186],[110.207,39.415],[110.284,39.516],[110.356,39.447],[110.592,39.457],[110.75,39.382],[111.113,39.646],[111.272,39.503],[111.303,39.474],[111.498,39.604],[111.601,39.754],[111.807,39.717],[111.926,39.725],[112.045,39.85],[112.381,40.368],[112.541,40.388],[112.763,40.282],[112.898,40.306],[113.11,40.494],[113.273,40.509],[113.39,40.433],[113.55,40.422],[113.841,40.557],[114.067,40.596],[114.212,40.792],[114.23,40.815],[113.949,41.169],[114.065,41.299],[113.998,41.394],[114.04,41.55],[114.248,41.698],[114.284,41.905],[114.604,42.223],[114.912,42.195],[115.026,42.043],[114.977,41.732],[115.008,41.684],[115.315,41.663],[115.512,41.825],[115.927,41.99],[116.061,41.947],[116.168,41.941],[116.466,42.102],[116.577,42.051],[116.83,42.025],[116.899,42.051],[116.952,42.268],[116.924,42.368],[116.941,42.468],[117.239,42.583],[117.427,42.586],[117.649,42.681],[117.82,42.663],[118.006,42.436],[118.089,42.268],[118.276,42.07],[118.248,41.908],[118.238,41.833],[118.432,41.615],[118.435,41.488],[118.47,41.431],[118.99,41.363],[119.101,41.41],[119.285,41.387],[119.323,41.382],[119.455,41.454],[119.493,41.571],[119.379,41.724],[119.458,42.178],[119.386,42.278],[119.375,42.37],[119.621,42.465],[119.75,42.358],[119.978,42.327],[119.94,42.214],[120.093,42.047],[120.207,41.843],[120.61,42.193],[120.949,42.37],[121.18,42.376],[121.564,42.608],[121.786,42.56],[121.987,42.628],[122.003,42.755],[122.128,42.791],[122.393,42.735],[122.491,42.775],[122.464,42.858],[122.491,42.946],[122.724,42.898],[122.865,42.791],[123.206,42.862],[123.314,43.037],[123.688,43.152],[123.81,43.43],[123.784,43.44],[123.467,43.565],[123.487,43.666],[123.595,43.713],[123.539,43.967],[123.386,44.1],[123.408,44.193],[123.231,44.532],[123.162,44.557],[122.419,44.292],[122.298,44.414],[122.371,44.483],[122.336,44.572],[122.142,44.757],[122.121,45.105],[122.145,45.208],[122.272,45.244],[122.316,45.406],[122.283,45.5],[122.112,45.556],[122.017,45.741],[121.844,45.767],[121.775,45.828],[121.861,45.902],[121.941,46.078],[122.146,46.047],[122.354,45.886],[122.472,45.975],[122.541,45.977],[122.721,45.808],[122.829,45.815],[122.905,46.011],[122.846,46.098],[122.905,46.167],[123.061,46.174],[123.151,46.196],[123.167,46.292],[123.168,46.299],[123.03,46.378],[123.089,46.493],[123.099,46.598],[123.144,46.679],[123.415,46.648],[123.598,46.736],[123.647,46.871],[123.522,46.79],[123.137,46.883],[122.877,47.131],[122.704,47.176],[122.569,47.416],[122.648,47.582],[123.293,47.845],[123.352,47.998],[123.488,48.037],[124.262,48.564],[124.425,48.542],[124.452,48.359],[124.593,48.236],[124.631,48.503],[124.848,49.091],[124.99,49.223],[125.185,49.184],[125.278,49.229],[125.379,49.471],[125.269,49.68],[125.303,49.806],[125.312,49.899],[125.363,50.17],[125.515,50.252],[125.608,50.435],[125.862,50.554],[125.913,50.683],[125.862,50.726],[125.879,50.859],[126.074,50.934],[126.108,51.062],[126.091,51.19],[125.947,51.19],[125.54,51.633],[125.151,51.675],[124.88,51.401],[124.618,51.422],[124.406,51.37],[124.186,51.407],[124.093,51.359],[123.923,51.38],[123.822,51.296],[123.661,51.296],[123.551,51.375],[123.399,51.333],[123.238,51.37],[123.035,51.475],[122.823,51.78],[122.874,51.968],[122.781,52.083],[122.84,52.254],[122.789,52.299],[122.599,52.328],[122.496,52.461],[122.355,52.53],[122.247,52.513],[122.193,52.385],[122.068,52.335],[121.933,52.345],[121.797,52.471],[121.629,52.504],[121.337,52.662],[121.917,53.08],[121.593,53.406],[120.808,53.243],[120.436,52.963],[120.148,52.831],[120.12,52.612],[120.576,52.57],[120.689,52.486],[120.632,52.353],[120.754,52.241],[120.632,51.912],[120.099,51.655],[119.715,51.104],[119.584,50.916],[119.522,50.805],[119.416,50.708],[119.271,50.567],[119.218,50.488],[119.191,50.423],[119.247,50.304],[119.325,50.188],[119.3,50.121],[119.128,50.01],[118.844,49.982],[118.66,49.969],[118.581,49.944],[118.41,49.832],[118.295,49.751],[118.126,49.678],[118.006,49.598],[117.876,49.575],[117.718,49.576],[117.363,49.654],[117.068,49.708],[116.728,49.849],[116.564,49.647],[116.058,48.872],[116.125,48.803],[116.083,48.731],[115.914,48.619],[115.834,48.276],[115.508,48.156],[115.599,47.904],[115.967,47.671],[116.248,47.86],[116.466,47.843],[117.045,47.86],[117.413,47.664],[117.77,48.006],[118.46,47.99],[118.824,47.788],[119.08,47.783],[119.169,47.563],[119.46,47.37],[119.729,47.2],[119.782,47.109],[119.884,46.956],[119.926,46.881],[119.871,46.756],[119.522,46.668],[118.397,46.78],[117.768,46.58],[117.519,46.629],[117.401,46.53],[117.326,46.436],[116.847,46.457],[116.566,46.296],[116.42,46.177],[116.375,46.094],[116.289,45.989],[116.253,45.909],[116.256,45.859],[116.271,45.787],[115.642,45.447],[114.653,45.444],[114.503,45.206],[113.647,44.811],[112.732,44.882],[112.551,45.042],[111.92,45.071],[111.442,44.371],[112.028,43.836],[112,43.728],[111.584,43.51],[111.067,43.364],[110.419,42.785],[109.423,42.468],[108.234,42.437],[107.902,42.388],[107.395,42.46],[107.243,42.36],[106.844,42.301],[105.911,42.026],[105.62,41.882],[105.148,41.67],[105.003,41.569],[104.608,41.631],[104.573,41.804],[103.8,41.786],[103.096,41.967],[102.229,42.093],[101.848,42.411],[100.337,42.576],[100.061,42.56],[99.303,42.448],[97.452,42.566],[97.367,42.546],[97.406,42.168],[97.574,41.958],[97.401,41.68],[97.428,41.461],[97.78,40.976],[97.997,40.845],[98.235,40.615],[98.403,40.537],[98.609,40.562],[99.059,40.861],[100.137,40.915],[100.419,40.759],[100.435,40.454],[100.002,40.173],[99.817,39.979],[99.98,39.796],[100.289,39.683],[100.44,39.537],[100.887,39.527],[100.925,39.457],[100.897,39.377],[100.918,39.154],[101.119,39.044],[101.279,39.036],[101.393,38.96],[101.608,38.923],[102.375,38.944],[102.832,39.084],[103.38,39.468],[103.834,39.455],[104.219,39.216],[104.248,39.008],[104.121,38.875],[104.155,38.773],[104.139,38.565],[104.022,38.466],[103.731,38.422],[103.726,38.224],[103.618,38.055],[103.635,37.799],[103.964,37.694],[103.979,37.623],[104.306,37.527],[104.51,37.546],[104.543,37.574],[104.599,37.62],[105.096,37.674],[105.302,37.885],[105.453,38.004],[105.906,38.294],[105.906,38.757],[106.096,38.966],[106.092,39.132],[106.321,39.242],[106.38,39.341],[106.52,39.343],[106.66,39.432],[106.873,39.405],[106.873,39.264],[107.066,39.116],[106.636,38.386],[106.934,38.229],[107.246,38.24],[107.51,38.081],[107.581,37.826]]]}},{"type":"Feature","properties":{"iso3":"CHN","shapeGroup":"CHN","shapeName":"Heilongjiang Province","listId":"asia-china-tibet-autonomous-region"},"geometry":{"type":"Polygon","coordinates":[[[131.322,43.452],[131.333,43.479],[131.246,43.538],[131.365,44.05],[131.056,44.778],[131.078,44.858],[131.484,44.939],[131.901,45.264],[132.026,45.153],[132.942,44.966],[133.045,45.019],[133.148,45.401],[133.381,45.504],[133.689,46.044],[133.863,46.209],[133.939,46.493],[134.069,46.784],[134.215,47.308],[134.513,47.389],[134.74,47.648],[134.545,47.939],[134.692,48.247],[134.307,48.362],[133.966,48.265],[133.695,48.207],[133.505,48.07],[133.186,48.117],[132.877,47.969],[132.649,47.903],[132.492,47.718],[131.799,47.674],[131.392,47.743],[131.051,47.707],[130.953,47.725],[130.878,47.9],[130.688,48.07],[130.818,48.287],[130.585,48.596],[130.612,48.882],[130.265,48.903],[129.431,49.399],[129.157,49.377],[128.654,49.645],[128.224,49.566],[127.745,49.654],[127.503,49.956],[127.584,50.19],[127.334,50.328],[127.416,50.649],[126.944,51.144],[126.993,51.31],[126.522,51.942],[126.556,52.119],[126.353,52.456],[126.091,52.631],[126.048,52.754],[125.667,53.086],[125.1,53.243],[124.711,53.177],[123.644,53.571],[121.612,53.41],[121.593,53.406],[121.917,53.08],[121.337,52.662],[121.629,52.504],[121.797,52.471],[121.933,52.345],[122.068,52.335],[122.193,52.385],[122.247,52.513],[122.355,52.53],[122.496,52.461],[122.599,52.328],[122.789,52.299],[122.84,52.254],[122.781,52.083],[122.874,51.968],[122.823,51.78],[123.035,51.475],[123.238,51.37],[123.399,51.333],[123.551,51.375],[123.661,51.296],[123.822,51.296],[123.923,51.38],[124.093,51.359],[124.186,51.407],[124.406,51.37],[124.618,51.422],[124.88,51.401],[125.151,51.675],[125.54,51.633],[125.947,51.19],[126.091,51.19],[126.108,51.062],[126.074,50.934],[125.879,50.859],[125.862,50.726],[125.913,50.683],[125.862,50.554],[125.608,50.435],[125.515,50.252],[125.363,50.17],[125.312,49.899],[125.303,49.806],[125.269,49.68],[125.379,49.471],[125.278,49.229],[125.185,49.184],[124.99,49.223],[124.848,49.091],[124.631,48.503],[124.593,48.236],[124.452,48.359],[124.425,48.542],[124.262,48.564],[123.488,48.037],[123.352,47.998],[123.293,47.845],[122.648,47.582],[122.569,47.416],[122.704,47.176],[122.877,47.131],[123.137,46.883],[123.522,46.79],[123.647,46.871],[123.598,46.736],[123.415,46.648],[123.144,46.679],[123.099,46.598],[123.089,46.493],[123.03,46.378],[123.168,46.299],[123.167,46.292],[123.366,46.335],[123.571,46.323],[123.879,46.349],[124.105,46.189],[124.115,46.085],[124.06,45.972],[124.191,45.796],[124.514,45.527],[124.701,45.493],[125.01,45.578],[125.148,45.469],[125.44,45.447],[125.54,45.559],[125.714,45.559],[125.783,45.525],[125.779,45.396],[125.909,45.291],[126.295,45.214],[126.548,45.33],[126.69,45.313],[126.794,45.224],[127.029,45.17],[127.114,44.985],[127.047,44.863],[127.138,44.716],[127.309,44.688],[127.433,44.715],[127.586,44.631],[127.562,44.491],[127.875,44.109],[128.068,44.138],[128.13,44.259],[128.101,44.511],[128.155,44.644],[128.428,44.582],[128.487,44.506],[128.447,44.232],[128.605,44.004],[128.796,43.921],[128.956,43.587],[129.158,43.579],[129.313,43.656],[129.34,43.815],[129.579,43.882],[129.813,43.866],[129.897,44.011],[130.032,44.001],[130.169,43.879],[130.392,43.96],[130.527,43.65],[130.732,43.597],[130.953,43.428],[131.322,43.452]]]}}]}